[{"OBJECT_NAME":"STARLINK-34219","OBJECT_ID":"2025-120Q","EPOCH":"2026-03-16T18:04:50.069856","MEAN_MOTION":15.30208737,"ECCENTRICITY":0.0001376,"INCLINATION":53.1601,"RA_OF_ASC_NODE":84.1591,"ARG_OF_PERICENTER":96.3577,"MEAN_ANOMALY":263.758,"EPHEMERIS_TYPE":0,"CLASSIFICATION_TYPE":"U","NORAD_CAT_ID":64270,"ELEMENT_SET_NO":999,"REV_AT_EPOCH":4499,"BSTAR":0.00097961,"MEAN_MOTION_DOT":0.00028774,"MEAN_MOTION_DDOT":0},{"OBJECT_NAME":"STARLINK-34342","OBJECT_ID":"2025-120R","EPOCH":"2026-03-16T05:05:03.770880","MEAN_MOTION":15.30182733,"ECCENTRICITY":0.00015798,"INCLINATION":53.1605,"RA_OF_ASC_NODE":86.4712,"ARG_OF_PERICENTER":101.4192,"MEAN_ANOMALY":258.6987,"EPHEMERIS_TYPE":0,"CLASSIFICATION_TYPE":"U","NORAD_CAT_ID":64271,"ELEMENT_SET_NO":999,"REV_AT_EPOCH":4486,"BSTAR":0.00064027662,"MEAN_MOTION_DOT":0.00018641,"MEAN_MOTION_DDOT":0},{"OBJECT_NAME":"STARLINK-34001","OBJECT_ID":"2025-120S","EPOCH":"2026-03-16T18:10:54.919776","MEAN_MOTION":15.30209874,"ECCENTRICITY":0.0001568,"INCLINATION":53.1608,"RA_OF_ASC_NODE":84.1917,"ARG_OF_PERICENTER":74.1711,"MEAN_ANOMALY":285.9462,"EPHEMERIS_TYPE":0,"CLASSIFICATION_TYPE":"U","NORAD_CAT_ID":64272,"ELEMENT_SET_NO":999,"REV_AT_EPOCH":4489,"BSTAR":0.000703,"MEAN_MOTION_DOT":0.00020526,"MEAN_MOTION_DDOT":0},{"OBJECT_NAME":"STARLINK-34334","OBJECT_ID":"2025-120T","EPOCH":"2026-03-16T04:13:23.320704","MEAN_MOTION":15.3021479,"ECCENTRICITY":0.00013248,"INCLINATION":53.1591,"RA_OF_ASC_NODE":86.2498,"ARG_OF_PERICENTER":85.2004,"MEAN_ANOMALY":274.9148,"EPHEMERIS_TYPE":0,"CLASSIFICATION_TYPE":"U","NORAD_CAT_ID":64273,"ELEMENT_SET_NO":999,"REV_AT_EPOCH":4491,"BSTAR":0.0010502753,"MEAN_MOTION_DOT":0.00030891,"MEAN_MOTION_DDOT":0},{"OBJECT_NAME":"STARLINK-34272","OBJECT_ID":"2025-120U","EPOCH":"2026-03-16T18:01:47.994816","MEAN_MOTION":15.30197102,"ECCENTRICITY":0.0001451,"INCLINATION":53.1603,"RA_OF_ASC_NODE":84.1488,"ARG_OF_PERICENTER":87.4005,"MEAN_ANOMALY":272.7162,"EPHEMERIS_TYPE":0,"CLASSIFICATION_TYPE":"U","NORAD_CAT_ID":64274,"ELEMENT_SET_NO":999,"REV_AT_EPOCH":4489,"BSTAR":0.00089791,"MEAN_MOTION_DOT":0.00026326,"MEAN_MOTION_DDOT":0},{"OBJECT_NAME":"STARLINK-34293","OBJECT_ID":"2025-120V","EPOCH":"2026-03-16T18:06:21.340224","MEAN_MOTION":15.30208143,"ECCENTRICITY":0.0001184,"INCLINATION":53.1597,"RA_OF_ASC_NODE":84.1685,"ARG_OF_PERICENTER":91.8871,"MEAN_ANOMALY":268.2265,"EPHEMERIS_TYPE":0,"CLASSIFICATION_TYPE":"U","NORAD_CAT_ID":64275,"ELEMENT_SET_NO":999,"REV_AT_EPOCH":4493,"BSTAR":0.0008597,"MEAN_MOTION_DOT":0.00025195,"MEAN_MOTION_DDOT":0},{"OBJECT_NAME":"STARLINK-34350","OBJECT_ID":"2025-120W","EPOCH":"2026-03-16T17:05:34.599264","MEAN_MOTION":15.3020373,"ECCENTRICITY":0.00014,"INCLINATION":53.1571,"RA_OF_ASC_NODE":83.9034,"ARG_OF_PERICENTER":88.266,"MEAN_ANOMALY":271.8501,"EPHEMERIS_TYPE":0,"CLASSIFICATION_TYPE":"U","NORAD_CAT_ID":64276,"ELEMENT_SET_NO":999,"REV_AT_EPOCH":4499,"BSTAR":0.00054765,"MEAN_MOTION_DOT":0.00015897,"MEAN_MOTION_DDOT":0},{"OBJECT_NAME":"STARLINK-34264","OBJECT_ID":"2025-120X","EPOCH":"2026-03-16T17:43:33.833856","MEAN_MOTION":15.30206853,"ECCENTRICITY":0.0001359,"INCLINATION":53.1597,"RA_OF_ASC_NODE":84.0669,"ARG_OF_PERICENTER":90.8998,"MEAN_ANOMALY":269.2158,"EPHEMERIS_TYPE":0,"CLASSIFICATION_TYPE":"U","NORAD_CAT_ID":64277,"ELEMENT_SET_NO":999,"REV_AT_EPOCH":4493,"BSTAR":0.0006156,"MEAN_MOTION_DOT":0.00017921,"MEAN_MOTION_DDOT":0},{"OBJECT_NAME":"STARLINK-34353","OBJECT_ID":"2025-120Y","EPOCH":"2026-03-16T17:57:14.684832","MEAN_MOTION":15.30204272,"ECCENTRICITY":0.0001448,"INCLINATION":53.1602,"RA_OF_ASC_NODE":84.1269,"ARG_OF_PERICENTER":100.505,"MEAN_ANOMALY":259.6114,"EPHEMERIS_TYPE":0,"CLASSIFICATION_TYPE":"U","NORAD_CAT_ID":64278,"ELEMENT_SET_NO":999,"REV_AT_EPOCH":4499,"BSTAR":0.00060021,"MEAN_MOTION_DOT":0.00017461,"MEAN_MOTION_DDOT":0},{"OBJECT_NAME":"STARLINK-34377","OBJECT_ID":"2025-120Z","EPOCH":"2026-03-16T17:13:10.600320","MEAN_MOTION":15.30204556,"ECCENTRICITY":0.0001306,"INCLINATION":53.1568,"RA_OF_ASC_NODE":83.9315,"ARG_OF_PERICENTER":78.1986,"MEAN_ANOMALY":281.9161,"EPHEMERIS_TYPE":0,"CLASSIFICATION_TYPE":"U","NORAD_CAT_ID":64279,"ELEMENT_SET_NO":999,"REV_AT_EPOCH":4499,"BSTAR":0.0006798,"MEAN_MOTION_DOT":0.00019831,"MEAN_MOTION_DDOT":0},{"OBJECT_NAME":"STARLINK-34359","OBJECT_ID":"2025-120AA","EPOCH":"2026-03-16T17:51:10.160640","MEAN_MOTION":15.30213918,"ECCENTRICITY":0.0001049,"INCLINATION":53.1601,"RA_OF_ASC_NODE":84.0973,"ARG_OF_PERICENTER":92.347,"MEAN_ANOMALY":267.7651,"EPHEMERIS_TYPE":0,"CLASSIFICATION_TYPE":"U","NORAD_CAT_ID":64280,"ELEMENT_SET_NO":999,"REV_AT_EPOCH":4499,"BSTAR":0.00060913,"MEAN_MOTION_DOT":0.00017732,"MEAN_MOTION_DDOT":0},{"OBJECT_NAME":"STARLINK-34366","OBJECT_ID":"2025-120AB","EPOCH":"2026-03-16T04:55:56.750016","MEAN_MOTION":15.30199442,"ECCENTRICITY":0.00014628,"INCLINATION":53.1598,"RA_OF_ASC_NODE":86.4271,"ARG_OF_PERICENTER":104.2393,"MEAN_ANOMALY":255.8771,"EPHEMERIS_TYPE":0,"CLASSIFICATION_TYPE":"U","NORAD_CAT_ID":64281,"ELEMENT_SET_NO":999,"REV_AT_EPOCH":4486,"BSTAR":0.00084205363,"MEAN_MOTION_DOT":0.00024662,"MEAN_MOTION_DDOT":0},{"OBJECT_NAME":"STARLINK-34381","OBJECT_ID":"2025-120AC","EPOCH":"2026-03-16T05:08:06.123264","MEAN_MOTION":15.30196098,"ECCENTRICITY":0.00014795,"INCLINATION":53.1605,"RA_OF_ASC_NODE":86.4794,"ARG_OF_PERICENTER":93.8313,"MEAN_ANOMALY":266.2857,"EPHEMERIS_TYPE":0,"CLASSIFICATION_TYPE":"U","NORAD_CAT_ID":64282,"ELEMENT_SET_NO":999,"REV_AT_EPOCH":4489,"BSTAR":0.00066830199,"MEAN_MOTION_DOT":0.00019484,"MEAN_MOTION_DDOT":0},{"OBJECT_NAME":"STARLINK-34448","OBJECT_ID":"2025-123A","EPOCH":"2026-03-16T16:02:36.080160","MEAN_MOTION":14.98248612,"ECCENTRICITY":0.0005385,"INCLINATION":69.9999,"RA_OF_ASC_NODE":176.8725,"ARG_OF_PERICENTER":329.4657,"MEAN_ANOMALY":30.6188,"EPHEMERIS_TYPE":0,"CLASSIFICATION_TYPE":"U","NORAD_CAT_ID":64291,"ELEMENT_SET_NO":999,"REV_AT_EPOCH":4388,"BSTAR":-0.0026417,"MEAN_MOTION_DOT":-0.00031414,"MEAN_MOTION_DDOT":0},{"OBJECT_NAME":"STARLINK-34362","OBJECT_ID":"2025-123B","EPOCH":"2026-03-16T16:20:28.164192","MEAN_MOTION":14.98336014,"ECCENTRICITY":0.0003405,"INCLINATION":70.0023,"RA_OF_ASC_NODE":176.916,"ARG_OF_PERICENTER":267.4363,"MEAN_ANOMALY":92.6406,"EPHEMERIS_TYPE":0,"CLASSIFICATION_TYPE":"U","NORAD_CAT_ID":64292,"ELEMENT_SET_NO":999,"REV_AT_EPOCH":4388,"BSTAR":0.00052773,"MEAN_MOTION_DOT":6.211e-5,"MEAN_MOTION_DDOT":0},{"OBJECT_NAME":"STARLINK-34428","OBJECT_ID":"2025-123C","EPOCH":"2026-03-15T18:42:37.748448","MEAN_MOTION":14.98332729,"ECCENTRICITY":0.00033792,"INCLINATION":70.0024,"RA_OF_ASC_NODE":178.9853,"ARG_OF_PERICENTER":266.8175,"MEAN_ANOMALY":93.2598,"EPHEMERIS_TYPE":0,"CLASSIFICATION_TYPE":"U","NORAD_CAT_ID":64293,"ELEMENT_SET_NO":999,"REV_AT_EPOCH":4375,"BSTAR":0.00012567683,"MEAN_MOTION_DOT":1.407e-5,"MEAN_MOTION_DDOT":0}]
