STARLINK-34219          
1 64270U 25120Q   26075.75335729  .00028774  00000+0  97961-3 0  9992
2 64270  53.1601  84.1591 0001376  96.3577 263.7580 15.30208737 44992
STARLINK-34342          
1 64271U 25120R   26075.21184920  .00018641  00000+0  64028-3 0  9999
2 64271  53.1605  86.4712 0001579 101.4192 258.6987 15.30182733 44860
STARLINK-34001          
1 64272U 25120S   26075.75758009  .00020526  00000+0  70300-3 0  9999
2 64272  53.1608  84.1917 0001568  74.1711 285.9462 15.30209874 44897
STARLINK-34334          
1 64273U 25120T   26075.17596436  .00030891  00000+0  10503-2 0  9994
2 64273  53.1591  86.2498 0001324  85.2004 274.9148 15.30214790 44919
STARLINK-34272          
1 64274U 25120U   26075.75124994  .00026326  00000+0  89791-3 0  9999
2 64274  53.1603  84.1488 0001451  87.4005 272.7162 15.30197102 44892
STARLINK-34293          
1 64275U 25120V   26075.75441366  .00025195  00000+0  85970-3 0  9993
2 64275  53.1597  84.1685 0001184  91.8871 268.2265 15.30208143 44934
STARLINK-34350          
1 64276U 25120W   26075.71220601  .00015897  00000+0  54765-3 0  9993
2 64276  53.1571  83.9034 0001400  88.2660 271.8501 15.30203730 44995
STARLINK-34264          
1 64277U 25120X   26075.73858604  .00017921  00000+0  61560-3 0  9997
2 64277  53.1597  84.0669 0001359  90.8998 269.2158 15.30206853 44938
STARLINK-34353          
1 64278U 25120Y   26075.74808663  .00017461  00000+0  60021-3 0  9999
2 64278  53.1602  84.1269 0001448 100.5050 259.6114 15.30204272 44994
STARLINK-34377          
1 64279U 25120Z   26075.71748380  .00019831  00000+0  67980-3 0  9990
2 64279  53.1568  83.9315 0001306  78.1986 281.9161 15.30204556 44991
STARLINK-34359          
1 64280U 25120AA  26075.74386760  .00017732  00000+0  60913-3 0  9992
2 64280  53.1601  84.0973 0001049  92.3470 267.7651 15.30213918 44991
STARLINK-34366          
1 64281U 25120AB  26075.20551794  .00024662  00000+0  84205-3 0  9995
2 64281  53.1598  86.4271 0001462 104.2393 255.8771 15.30199442 44862
STARLINK-34381          
1 64282U 25120AC  26075.21395976  .00019484  00000+0  66830-3 0  9995
2 64282  53.1605  86.4794 0001479  93.8313 266.2857 15.30196098 44893
STARLINK-34448          
1 64291U 25123A   26075.66847315 -.00031414  00000+0 -26417-2 0  9991
2 64291  69.9999 176.8725 0005385 329.4657  30.6188 14.98248612 43882
STARLINK-34362          
1 64292U 25123B   26075.68088153  .00006211  00000+0  52773-3 0  9991
2 64292  70.0023 176.9160 0003405 267.4363  92.6406 14.98336014 43889
STARLINK-34428          
1 64293U 25123C   26074.77960357  .00001407  00000+0  12568-3 0  9996
2 64293  70.0024 178.9853 0003379 266.8175  93.2598 14.98332729 43750
